[{"OBJECT_NAME":"GEOSCAN 4 (RS92S4)","OBJECT_ID":"2025-155S","EPOCH":"2026-03-09T21:50:07.724832","MEAN_MOTION":15.30369837,"ECCENTRICITY":0.00070968,"INCLINATION":97.4465,"RA_OF_ASC_NODE":37.7626,"ARG_OF_PERICENTER":154.7045,"MEAN_ANOMALY":205.4544,"EPHEMERIS_TYPE":0,"CLASSIFICATION_TYPE":"U","NORAD_CAT_ID":64892,"ELEMENT_SET_NO":999,"REV_AT_EPOCH":6562,"BSTAR":0.00068609503,"MEAN_MOTION_DOT":0.00020121,"MEAN_MOTION_DDOT":0},{"OBJECT_NAME":"STARLINK-35180","OBJECT_ID":"2025-195E","EPOCH":"2026-03-09T21:29:03.111360","MEAN_MOTION":15.30204881,"ECCENTRICITY":8.82e-5,"INCLINATION":53.158,"RA_OF_ASC_NODE":257.3378,"ARG_OF_PERICENTER":119.8503,"MEAN_ANOMALY":240.2586,"EPHEMERIS_TYPE":0,"CLASSIFICATION_TYPE":"U","NORAD_CAT_ID":65462,"ELEMENT_SET_NO":999,"REV_AT_EPOCH":3002,"BSTAR":0.00091911033,"MEAN_MOTION_DOT":0.00026965,"MEAN_MOTION_DDOT":0}]
